LEMUR-2-SPIROVISION     
1 42755U 17019E   17295.94726690  .00004402  00000-0  17031-3 0  9993
2 42755  51.6375 148.1985 0011349  84.3179 275.9094 15.28206538 20691
UCLSAT                  
1 42765U 17036A   17295.85988528  .00002298  00000-0  10626-3 0  9997
2 42765  97.4354 354.1605 0012053 180.1713 179.9521 15.21118048 19212
LITUANICASAT-2          
1 42768U 17036D   17296.20755154  .00003557  00000-0  16669-3 0  9999
2 42768  97.4356 354.3106 0016626 170.4768 189.6785 15.20226802 18549
LEMUR-2-SHAINAJOHL      
1 42771U 17036G   17295.80238284  .00002585  00000-0  12201-3 0  9996
2 42771  97.4356 353.9347 0015645 170.8262 189.3262 15.20252824 18425
LEMUR-2-XUENITERENCE    
1 42772U 17036H   17296.12768564  .00002471  00000-0  11664-3 0  9998
2 42772  97.4355 354.2634 0015364 169.1729 190.9840 15.20292292 18473
LEMUR-2-LUCYBRYCE       
1 42773U 17036J   17296.18668252  .00003363  00000-0  15683-3 0  9994
2 42773  97.4356 354.3383 0015251 168.4997 191.6590 15.20452631 18487
LEMUR-2-KUNGFOO         
1 42774U 17036K   17295.85911176  .00002678  00000-0  12590-3 0  9996
2 42774  97.4358 354.0151 0015102 169.7181 190.4366 15.20362041 18421
AALTO-1                 
1 42775U 17036L   17295.72581526  .00001390  00000-0  67116-4 0  9990
2 42775  97.4355 353.8837 0014702 169.0983 191.0574 15.20247223 18416
URSA MAIOR              
1 42776U 17036M   17295.72259367  .00001537  00000-0  73770-4 0  9992
2 42776  97.4359 353.8922 0014564 169.2691 190.8857 15.20296408 18410
COMPASS 2               
1 42777U 17036N   17296.22142114  .00003182  00000-0  14719-3 0  9995
2 42777  97.4366 354.4637 0013619 171.4295 188.7176 15.20799229 18480
LEMUR-2-LYNSEY-SYMO     
1 42779U 17036Q   17296.13814449  .00003284  00000-0  15068-3 0  9995
2 42779  97.4360 354.4086 0013023 177.6976 182.4322 15.21062193 18463
LEMUR-2-LISASAURUS      
1 42780U 17036R   17295.74420329  .00002753  00000-0  12711-3 0  9995
2 42780  97.4357 354.0135 0012822 178.9721 181.1543 15.20983945 18412
LEMUR-2-SAM-AMELIA      
1 42781U 17036S   17295.93716194  .00003218  00000-0  14759-3 0  9996
2 42781  97.4357 354.2129 0012832 178.8239 181.3029 15.21097304 18431
LEMUR-2-MCPEAKE         
1 42782U 17036T   17295.93481221  .00003175  00000-0  14553-3 0  9991
2 42782  97.4359 354.2191 0012669 178.1555 181.9730 15.21131118 18432
DIAMOND RED             
1 42783U 17036U   17295.74278811  .00001770  00000-0  83083-4 0  9994
2 42783  97.4357 354.0131 0012586 180.8338 179.2879 15.20885264 18419
PEGASUS                 
1 42784U 17036V   17296.13393704  .00002130  00000-0  99102-4 0  9998
2 42784  97.4355 354.4097 0012608 179.5437 180.5812 15.20974349 18474
DIAMOND GREEN           
1 42785U 17036W   17295.74180774  .00001811  00000-0  84975-4 0  9993
2 42785  97.4360 354.0179 0012488 181.1241 178.9968 15.20879688 18402
DIAMOND BLUE            
1 42786U 17036X   17295.73981597  .00001792  00000-0  84179-4 0  9999
2 42786  97.4360 354.0196 0012308 181.5115 178.6086 15.20858955 18487
NUDTSAT                 
1 42787U 17036Y   17295.85751554  .00003149  00000-0  14385-3 0  9990
2 42787  97.4358 354.1674 0012241 180.6135 179.5088 15.21252500 18279
SUCHAI                  
1 42788U 17036Z   17295.86178680  .00002557  00000-0  11781-3 0  9994
2 42788  97.4356 354.1602 0012227 180.4552 179.6675 15.21128211 18504
SKCUBE                  
1 42789U 17036AA  17295.72759009  .00002308  00000-0  10662-3 0  9991
2 42789  97.4355 354.0324 0012046 180.7155 179.4065 15.21142123 18403
VZLUSAT-1               
1 42790U 17036AB  17295.71997692  .00003017  00000-0  13781-3 0  9997
2 42790  97.4353 354.0392 0011797 181.1759 178.9451 15.21291056 18408
ROBUSTA-1B              
1 42792U 17036AD  17295.71753026  .00002356  00000-0  10836-3 0  9993
2 42792  97.4353 354.0414 0011592 181.7456 178.3742 15.21275468 18415
CICERO 6                
1 42793U 17036AE  17295.90218098  .00001641  00000-0  76261-4 0  9991
2 42793  97.4352 354.2508 0010617 181.4537 178.6669 15.21359091 18512
D-SAT                   
1 42794U 17036AF  17295.90709643  .00000489  00000-0  48440-4 0  9990
2 42794  97.6276 354.0665 0127217 352.1034   7.8179 14.90675858 18376
TOKI                    
1 42820U 98067MU  17295.90521398  .00020412  00000-0  26753-3 0  9992
2 42820  51.6368 119.8381 0002024 357.5320   2.5662 15.58544297 16762
GHANASAT-1              
1 42821U 98067MV  17295.97446868  .00020787  00000-0  27367-3 0  9995
2 42821  51.6369 119.5499 0001996   3.0492 357.0512 15.58411949 16737
MAZAALAI (NUMSAT-1)     
1 42822U 98067MW  17295.97490378  .00021313  00000-0  28010-3 0  9993
2 42822  51.6370 119.5542 0002072   5.6352 354.4664 15.58441766 16737
BRAC ONNESHA            
1 42823U 98067MX  17295.97692293  .00021464  00000-0  28190-3 0  9990
2 42823  51.6377 119.5708 0005340  25.5027 334.6228 15.58444023 16735
NIGERIAEDUSAT-1         
1 42824U 98067MY  17295.91721252  .00020992  00000-0  27675-3 0  9995
2 42824  51.6381 119.9226 0005201  26.5474 333.5784 15.58358468 16713
LEMUR-2-GREENBERG       
1 42837U 17042N   17295.93134398  .00000865  00000-0  92515-4 0  9997
2 42837  97.6076 202.0588 0011708 268.4301  91.5577 14.91138713 14992
LEMUR-2-ANDIS           
1 42838U 17042P   17296.19829697  .00001016  00000-0  10771-3 0  9992
2 42838  97.6076 202.3190 0011802 267.3036  92.6832 14.91155883 15032
LEMUR-2-MONSON          
1 42839U 17042Q   17295.92375394  .00000526  00000-0  58327-4 0  9998
2 42839  97.6074 202.0673 0011544 267.0809  92.9088 14.91220153 14995
LEMUR-2-FURIAUS         
1 42840U 17042R   17295.92090591  .00000853  00000-0  91023-4 0  9996
2 42840  97.6074 202.0702 0011601 267.9384  92.0506 14.91293603 14986
LEMUR-2-PETERG          
1 42841U 17042S   17296.18041085  .00001049  00000-0  11027-3 0  9993
2 42841  97.6074 202.3415 0011270 265.3316  94.6616 14.91424916 15030
LEMUR-2-DEMBITZ         
1 42842U 17042T   17296.17891289  .00000951  00000-0  10051-3 0  9999
2 42842  97.6073 202.3416 0011280 265.9078  94.0852 14.91446496 15036
LEMUR-2-ZACHARY         
1 42845U 17042W   17296.16419308  .00001148  00000-0  11959-3 0  9996
2 42845  97.6023 202.2935 0011681 271.3351  88.6529 14.91641446 15020
FLOCK 2K-03             
1 42850U 17042AB  17296.19035532  .00013615  00000-0  41378-3 0  9998
2 42850  96.9940 199.7899 0009402 250.5680 109.4548 15.34116420 15263
FLOCK 2K-04             
1 42851U 17042AC  17295.67170435  .00012818  00000-0  39083-3 0  9997
2 42851  96.9947 199.2940 0009174 254.9082 105.1147 15.34028936 15186
FLOCK 2K-01             
1 42852U 17042AD  17295.73555988  .00011978  00000-0  36523-3 0  9997
2 42852  96.9946 199.3565 0009002 253.1586 106.8670 15.34045611 15199
FLOCK 2K-02             
1 42853U 17042AE  17296.20892143  .00002996  00000-0  96081-4 0  9994
2 42853  96.9953 199.7737 0009998 249.3375 110.6797 15.33025248 15264
FLOCK 2K-47             
1 42854U 17042AF  17295.73233189  .00012707  00000-0  38665-3 0  9995
2 42854  96.9946 199.3583 0008898 251.6271 108.4006 15.34099386 15196
FLOCK 2K-48             
1 42855U 17042AG  17295.79627493  .00012476  00000-0  37888-3 0  9996
2 42855  96.9948 199.4259 0008877 251.5860 108.4419 15.34165811 15207
FLOCK 2K-45             
1 42856U 17042AH  17295.72943485  .00012496  00000-0  37942-3 0  9995
2 42856  96.9947 199.3636 0008988 250.6270 109.4002 15.34169027 15193
FLOCK 2K-24             
1 42857U 17042AJ  17295.72845538  .00012991  00000-0  39439-3 0  9999
2 42857  96.9944 199.3633 0008915 248.0570 111.9726 15.34166081 15190
FLOCK 2K-46             
1 42858U 17042AK  17295.72711690  .00007068  00000-0  21579-3 0  9996
2 42858  96.9951 199.3704 0009105 249.8039 110.2226 15.34155470 15196
FLOCK 2K-23             
1 42859U 17042AL  17295.72597378  .00007553  00000-0  23013-3 0  9996
2 42859  96.9950 199.3702 0009150 250.2305 109.7952 15.34195817 15194
FLOCK 2K-21             
1 42860U 17042AM  17295.78938533  .00010963  00000-0  33317-3 0  9993
2 42860  96.9946 199.4338 0009139 248.7271 111.2997 15.34170548 15201
FLOCK 2K-22             
1 42861U 17042AN  17296.19089648  .00013904  00000-0  42577-3 0  9990
2 42861  96.9948 199.7947 0009175 245.4604 114.5683 15.33873829 15262
FLOCK 2K-07             
1 42862U 17042AP  17295.78729167  .00005296  00000-0  16193-3 0  9992
2 42862  96.9948 199.4370 0009296 248.7060 111.3192 15.34217367 15211
FLOCK 2K-08             
1 42863U 17042AQ  17295.71971855  .00011031  00000-0  33466-3 0  9995
2 42863  96.9945 199.3740 0009283 249.0413 110.9838 15.34223277 15197
FLOCK 2K-05             
1 42864U 17042AR  17295.78667900  .00012894  00000-0  39117-3 0  9993
2 42864  96.9949 199.4372 0009358 248.0620 111.9630 15.34186766 15200
FLOCK 2K-40             
1 42865U 17042AS  17295.71834708  .00006547  00000-0  19972-3 0  9994
2 42865  96.9947 199.3796 0009233 249.1025 110.9230 15.34205415 15197
FLOCK 2K-39             
1 42866U 17042AT  17295.91305106  .00007540  00000-0  22955-3 0  9991
2 42866  96.9946 199.5644 0009292 247.8396 112.1862 15.34221018 15228
FLOCK 2K-37             
1 42867U 17042AU  17295.78074211  .00005884  00000-0  17959-3 0  9994
2 42867  96.9958 199.4435 0009271 249.6579 110.3669 15.34230688 15205
FLOCK 2K-38             
1 42868U 17042AV  17295.77798929  .00004697  00000-0  14366-3 0  9993
2 42868  96.9947 199.4480 0009361 249.0872 110.9371 15.34266661 15200
FLOCK 2K-31             
1 42869U 17042AW  17295.90649113  .00003096  00000-0  95436-4 0  9999
2 42869  96.9947 199.5727 0009441 247.0910 112.9338 15.34266491 15224
FLOCK 2K-32             
1 42870U 17042AX  17295.77526257  .00005147  00000-0  15719-3 0  9993
2 42870  96.9946 199.4508 0009509 248.4632 111.5599 15.34267594 15209
FLOCK 2K-29             
1 42871U 17042AY  17295.77391323  .00006374  00000-0  19393-3 0  9993
2 42871  96.9947 199.4542 0009626 247.4257 112.5968 15.34298137 15209
